{"fetched_at":"2026-03-29T16:36:15Z","count":15609,"tles":[{"name":"LEMUR-2-KATIE","line1":"1 67387U 26004AA  26087.95865792  .00007196  00000+0  76276-3 0  9990","line2":"2 67387  97.8048  88.0082 0003623  30.3217 329.8209 14.89395566 11365","category":"Other"}]}